NORAD_CAT_ID,OBJECT_NAME,OBJECT_TYPE,EPOCH,MEAN_MOTION,ECCENTRICITY,INCLINATION,RA_OF_ASC_NODE,ARG_OF_PERICENTER,MEAN_ANOMALY,BSTAR,MEAN_MOTION_DOT,MEAN_MOTION_DDOT,TLE_LINE0,TLE_LINE1,TLE_LINE2,SEMIMAJOR_AXIS,PERIOD,APOGEE,PERIGEE,DECAYED
53996.0,STARLINK-5131,PAYLOAD,2024-06-07 20:51:34,15.08845529,0.0001338,53.215,206.2272,87.4786,272.6359,0.00023778,3.499e-05,0.0,0 STARLINK-5131,1 53996U 22125AJ  24159.86915448  .00003499  00000-0  23778-3 0  9995,2 53996  53.2150 206.2272 0001338  87.4786 272.6359 15.08845529 92941,6917.863,95.437,540.654,538.803,0.0
53996.0,STARLINK-5131,PAYLOAD,2024-06-08 09:34:39,15.08851832,0.0001484,53.2154,203.8479,93.789,266.3272,0.00028697,4.284e-05,0.0,0 STARLINK-5131,1 53996U 22125AJ  24160.39907070  .00004284  00000-0  28697-3 0  9995,2 53996  53.2154 203.8479 0001484  93.7890 266.3272 15.08851832 92954,6917.844,95.437,540.736,538.683,0.0
53996.0,STARLINK-5131,PAYLOAD,2024-06-08 14:20:48,15.08856992,0.0001493,53.2157,202.9559,93.3301,266.7862,0.00033719,5.085e-05,0.0,0 STARLINK-5131,1 53996U 22125AJ  24160.59778706  .00005085  00000-0  33719-3 0  9990,2 53996  53.2157 202.9559 0001493  93.3301 266.7862 15.08856992 92983,6917.828,95.436,540.726,538.661,0.0
53996.0,STARLINK-5131,PAYLOAD,2024-06-09 12:36:13,15.08831033,0.0001416,53.2155,198.7932,94.8744,265.241,-9.8979e-05,-1.862e-05,0.0,0 STARLINK-5131,1 53996U 22125AJ  24161.52516098 -.00001862  00000-0 -98979-4 0  9999,2 53996  53.2155 198.7932 0001416  94.8744 265.2410 15.08831033 93196,6917.908,95.438,540.752,538.793,0.0
53996.0,STARLINK-5131,PAYLOAD,2024-06-09 18:57:46,15.08836277,0.0001398,53.2156,197.6042,97.3978,262.7173,3.0212e-05,1.93e-06,0.0,0 STARLINK-5131,1 53996U 22125AJ  24161.79012013  .00000193  00000-0  30212-4 0  9996,2 53996  53.2156 197.6042 0001398  97.3978 262.7173 15.08836277 93163,6917.892,95.438,540.724,538.79,0.0
53996.0,STARLINK-5131,PAYLOAD,2024-06-10 02:54:42,15.08841557,0.0001309,53.2155,196.1177,93.9078,266.2063,0.00016561,2.349e-05,0.0,0 STARLINK-5131,1 53996U 22125AJ  24162.12131956  .00002349  00000-0  16561-3 0  9997,2 53996  53.2155 196.1177 0001309  93.9078 266.2063 15.08841557 93287,6917.876,95.437,540.646,538.835,0.0
53996.0,STARLINK-5131,PAYLOAD,2024-06-10 09:16:14,15.08844369,0.0001298,53.2153,194.9283,98.2069,261.907,0.00059052,9.124e-05,0.0,0 STARLINK-5131,1 53996U 22125AJ  24162.38628118  .00009124  00000-0  59052-3 0  9996,2 53996  53.2153 194.9283 0001298  98.2069 261.9070 15.08844369 93255,6917.867,95.437,540.63,538.834,0.0
53996.0,STARLINK-5131,PAYLOAD,2024-06-11 09:07:01,15.08842873,0.0001282,53.2151,190.468,97.0476,263.0662,0.00021528,3.14e-05,0.0,0 STARLINK-5131,1 53996U 22125AJ  24163.37988145  .00003140  00000-0  21528-3 0  9994,2 53996  53.2151 190.4680 0001282  97.0476 263.0662 15.08842873 93402,6917.872,95.437,540.623,538.85,0.0
53996.0,STARLINK-5131,PAYLOAD,2024-06-12 01:00:53,15.08842605,0.0001269,53.2149,187.4942,95.6669,264.4468,0.00012067,1.633e-05,0.0,0 STARLINK-5131,1 53996U 22125AJ  24164.04228101  .00001633  00000-0  12067-3 0  9991,2 53996  53.2149 187.4942 0001269  95.6669 264.4468 15.08842605 93579,6917.872,95.437,540.615,538.86,0.0
53996.0,STARLINK-5131,PAYLOAD,2024-06-12 05:47:02,15.08836935,0.0001411,53.2162,186.6035,100.3574,259.7577,-3.2279e-06,-3.39e-06,0.0,0 STARLINK-5131,1 53996U 22125AJ  24164.24100384 -.00000339  00000-0 -32279-5 0  9998,2 53996  53.2162 186.6035 0001411 100.3574 259.7577 15.08836935 93539,6917.89,95.438,540.731,538.779,0.0
53996.0,STARLINK-5131,PAYLOAD,2024-06-12 08:57:49,15.08837081,0.0001378,53.216,186.0086,98.3935,261.7214,1.2931e-06,-2.67e-06,0.0,0 STARLINK-5131,1 53996U 22125AJ  24164.37348492 -.00000267  00000-0  12931-5 0  9998,2 53996  53.2160 186.0086 0001378  98.3935 261.7214 15.08837081 93620,6917.889,95.438,540.708,538.801,0.0
53996.0,STARLINK-5131,PAYLOAD,2024-06-13 08:48:36,15.08841823,0.0001351,53.2159,181.5478,91.43,268.6847,0.00012339,1.676e-05,0.0,0 STARLINK-5131,1 53996U 22125AJ  24165.36708390  .00001676  00000-0  12339-3 0  9999,2 53996  53.2159 181.5478 0001351  91.4300 268.6847 15.08841823 93700,6917.875,95.437,540.674,538.805,0.0
53996.0,STARLINK-5131,PAYLOAD,2024-06-14 07:03:58,15.08857327,0.0001227,53.2149,177.3845,94.5222,265.591,0.0003262,4.91e-05,0.0,0 STARLINK-5131,1 53996U 22125AJ  24166.29443199  .00004910  00000-0  32620-3 0  9994,2 53996  53.2149 177.3845 0001227  94.5222 265.5910 15.08857327 93847,6917.827,95.436,540.541,538.844,0.0
53996.0,STARLINK-5131,PAYLOAD,2024-06-14 18:11:41,15.08849422,0.0001215,53.2152,175.2999,91.753,268.3601,0.00014601,2.037e-05,0.0,0 STARLINK-5131,1 53996U 22125AJ  24166.75811384  .00002037  00000-0  14601-3 0  9997,2 53996  53.2152 175.2999 0001215  91.7530 268.3601 15.08849422 93919,6917.852,95.437,540.557,538.876,0.0
53996.0,STARLINK-5131,PAYLOAD,2024-06-15 06:54:46,15.08834131,0.0001227,53.2158,172.9243,76.0212,284.0916,-0.00011733,-2.154e-05,0.0,0 STARLINK-5131,1 53996U 22125AJ  24167.28804247 -.00002154  00000-0 -11733-3 0  9991,2 53996  53.2158 172.9243 0001227  76.0212 284.0916 15.08834131 93990,6917.898,95.438,540.612,538.915,0.0
53996.0,STARLINK-5131,PAYLOAD,2024-06-16 09:56:20,15.08836828,0.0001276,53.2159,167.868,83.2221,276.8917,9.9051e-05,1.289e-05,0.0,0 STARLINK-5131,1 53996U 22125AJ  24168.41412517  .00001289  00000-0  99051-4 0  9998,2 53996  53.2159 167.8680 0001276  83.2221 276.8917 15.08836828 94168,6917.89,95.438,540.638,538.872,0.0
53996.0,STARLINK-5131,PAYLOAD,2024-06-17 16:08:40,15.08843974,0.0001291,53.215,162.2183,78.7752,281.3385,0.00026649,3.956e-05,0.0,0 STARLINK-5131,1 53996U 22125AJ  24169.67268739  .00003956  00000-0  26649-3 0  9997,2 53996  53.2150 162.2183 0001291  78.7752 281.3385 15.08843974 94420,6917.868,95.437,540.626,538.84,0.0
53996.0,STARLINK-5131,PAYLOAD,2024-06-18 06:27:08,15.08845628,0.0001311,53.2152,159.5422,79.5066,280.6074,0.00018748,2.698e-05,0.0,0 STARLINK-5131,1 53996U 22125AJ  24170.26884531  .00002698  00000-0  18748-3 0  9991,2 53996  53.2152 159.5422 0001311  79.5066 280.6074 15.08845628 94444,6917.863,95.437,540.635,538.821,0.0
53996.0,STARLINK-5131,PAYLOAD,2024-06-18 15:59:27,15.08842444,0.0001315,53.215,157.7581,79.3864,280.7276,7.3403e-05,8.81e-06,0.0,0 STARLINK-5131,1 53996U 22125AJ  24170.66628546  .00000881  00000-0  73403-4 0  9999,2 53996  53.2150 157.7581 0001315  79.3864 280.7276 15.08842444 94578,6917.873,95.437,540.648,538.828,0.0
53996.0,STARLINK-5131,PAYLOAD,2024-06-19 09:28:41,15.08841093,0.0001358,53.2152,154.4868,78.9287,281.1858,2.7474e-05,1.49e-06,0.0,0 STARLINK-5131,1 53996U 22125AJ  24171.39492582  .00000149  00000-0  27474-4 0  9993,2 53996  53.2152 154.4868 0001358  78.9287 281.1858 15.08841093 94618,6917.877,95.437,540.681,538.803,0.0
53996.0,STARLINK-5131,PAYLOAD,2024-06-19 15:50:14,15.08839081,0.0001314,53.2162,153.2975,81.2291,278.885,5.6167e-05,6.06e-06,0.0,0 STARLINK-5131,1 53996U 22125AJ  24171.65989011  .00000606  00000-0  56167-4 0  9999,2 53996  53.2162 153.2975 0001314  81.2291 278.8850 15.08839081 94720,6917.883,95.438,540.657,538.839,0.0
53996.0,STARLINK-5131,PAYLOAD,2024-06-20 07:44:05,15.08846088,0.0001354,53.2164,150.3241,86.0931,274.0216,8.2889e-05,1.032e-05,0.0,0 STARLINK-5131,1 53996U 22125AJ  24172.32228415  .00001032  00000-0  82889-4 0  9992,2 53996  53.2164 150.3241 0001354  86.0931 274.0216 15.08846088 94756,6917.862,95.437,540.663,538.79,0.0
53996.0,STARLINK-5131,PAYLOAD,2024-06-21 04:24:07,15.08834454,0.0001439,53.2167,146.4585,91.7586,268.3571,2.9647e-05,1.84e-06,0.0,0 STARLINK-5131,1 53996U 22125AJ  24173.18341472  .00000184  00000-0  29647-4 0  9996,2 53996  53.2167 146.4585 0001439  91.7586 268.3571 15.08834454 94955,6917.897,95.438,540.758,538.767,0.0
53996.0,STARLINK-5131,PAYLOAD,2024-06-21 07:34:53,15.08836317,0.0001678,53.2177,145.8607,63.7412,296.3752,5.7194e-05,6.22e-06,0.0,0 STARLINK-5131,1 53996U 22125AJ  24173.31589415  .00000622  00000-0  57194-4 0  9997,2 53996  53.2177 145.8607 0001678  63.7412 296.3752 15.08836317 94903,6917.892,95.438,540.917,538.596,0.0
53996.0,STARLINK-5131,PAYLOAD,2024-06-22 07:25:40,15.08839155,0.0001578,53.2179,141.3974,83.2854,276.8317,2.6156e-05,1.28e-06,0.0,0 STARLINK-5131,1 53996U 22125AJ  24174.30949418  .00000128  00000-0  26156-4 0  9995,2 53996  53.2179 141.3974 0001578  83.2854 276.8317 15.08839155 95127,6917.883,95.438,540.84,538.656,0.0
53996.0,STARLINK-5131,PAYLOAD,2024-06-23 04:05:40,15.08845995,0.0001403,53.2168,137.5345,87.4348,272.6805,0.00012099,1.638e-05,0.0,0 STARLINK-5131,1 53996U 22125AJ  24175.17060671  .00001638  00000-0  12099-3 0  9993,2 53996  53.2168 137.5345 0001403  87.4348 272.6805 15.08845995 95254,6917.862,95.437,540.698,538.756,0.0
53996.0,STARLINK-5131,PAYLOAD,2024-06-23 07:16:26,15.08846919,0.0001401,53.2168,136.9397,88.2763,271.839,0.00012689,1.732e-05,0.0,0 STARLINK-5131,1 53996U 22125AJ  24175.30308568  .00001732  00000-0  12689-3 0  9998,2 53996  53.2168 136.9397 0001401  88.2763 271.8390 15.08846919 95204,6917.859,95.437,540.693,538.755,0.0
53996.0,STARLINK-5131,PAYLOAD,2024-06-24 02:21:04,15.0883867,0.0001452,53.2166,133.3701,78.8621,281.2534,3.467e-05,2.64e-06,0.0,0 STARLINK-5131,1 53996U 22125AJ  24176.09797354  .00000264  00000-0  34670-4 0  9994,2 53996  53.2166 133.3701 0001452  78.8621 281.2534 15.08838670 95396,6917.884,95.438,540.754,538.745,0.0
53996.0,STARLINK-5131,PAYLOAD,2024-06-25 02:11:51,15.0883835,0.0001575,53.2175,128.9077,100.6243,259.4927,4.2164e-06,-2.21e-06,0.0,0 STARLINK-5131,1 53996U 22125AJ  24177.09157346 -.00000221  00000-0  42164-5 0  9998,2 53996  53.2175 128.9077 0001575 100.6243 259.4927 15.08838350 95479,6917.885,95.438,540.84,538.661,0.0
53996.0,STARLINK-5131,PAYLOAD,2024-06-26 02:02:38,15.08839212,0.0001752,53.2185,124.4599,117.782,242.335,8.2542e-05,1.026e-05,0.0,0 STARLINK-5131,1 53996U 22125AJ  24178.08517172  .00001026  00000-0  82542-4 0  9991,2 53996  53.2185 124.4599 0001752 117.7820 242.3350 15.08839212 95690,6917.883,95.438,540.96,538.536,0.0
